{"type": "FeatureCollection", "features": [ {"type": "Feature", "properties": {"norad_id": 41549, "name": "GSAT0211 (GALILEO 14)", "group": "gnss", "lat": 20.838945773298285, "lon": 31.622916496002677, "alt_km": 23228.96950577363, "timestamp": "2025-12-07T05:38:10.147527+00:00", "meta": {"OBJECT_NAME": "GSAT0211 (GALILEO 14)", "OBJECT_ID": "2016-030A", "EPOCH": "2025-12-05T19:26:55.320000", "MEAN_MOTION": 1.70472946, "ECCENTRICITY": 0.00039556, "INCLINATION": 55.1547, "RA_OF_ASC_NODE": 227.0144, "ARG_OF_PERICENTER": 12.8849, "MEAN_ANOMALY": 347.2228, "EPHEMERIS_TYPE": 0, "CLASSIFICATION_TYPE": "U", "NORAD_CAT_ID": 41549, "ELEMENT_SET_NO": 999, "REV_AT_EPOCH": 5937, "BSTAR": 0, "MEAN_MOTION_DOT": 3.5e-07, "MEAN_MOTION_DDOT": 0}, "tle": {"line1": "1 41549U 16030A   25339.81036250  .00000035  00000+0  00000+0 0  9996", "line2": "2 41549  55.1547 227.0144 0003955  12.8849 347.2228  1.70472946 59378"}}, "geometry": {"type": "Point", "coordinates": [31.622916496002677, 20.838945773298285]}}, {"type": "Feature", "properties": {"norad_id": 41550, "name": "GSAT0210 (GALILEO 13)", "group": "gnss", "lat": -3.0724731030421575, "lon": -135.15861611220544, "alt_km": 23224.484572981797, "timestamp": "2025-12-07T05:38:10.147537+00:00", "meta": {"OBJECT_NAME": "GSAT0210 (GALILEO 13)", "OBJECT_ID": "2016-030B", "EPOCH": "2025-12-04T07:23:32.472672", "MEAN_MOTION": 1.70473512, "ECCENTRICITY": 0.0001419, "INCLINATION": 55.1546, "RA_OF_ASC_NODE": 227.0538, "ARG_OF_PERICENTER": 244.2228, "MEAN_ANOMALY": 115.8568, "EPHEMERIS_TYPE": 0, "CLASSIFICATION_TYPE": "U", "NORAD_CAT_ID": 41550, "ELEMENT_SET_NO": 999, "REV_AT_EPOCH": 5934, "BSTAR": 0, "MEAN_MOTION_DOT": 4e-07, "MEAN_MOTION_DDOT": 0}, "tle": {"line1": "1 41550U 16030B   25338.30801473  .00000040  00000+0  00000+0 0  9994", "line2": "2 41550  55.1546 227.0538 0001419 244.2228 115.8568  1.70473512 59344"}}, "geometry": {"type": "Point", "coordinates": [-135.15861611220544, -3.0724731030421575]}}, {"type": "Feature", "properties": {"norad_id": 41586, "name": "BEIDOU-2 G7 (C03)", "group": "gnss", "lat": -0.7190514293078609, "lon": -88.7501348701867, "alt_km": 35803.95925794213, "timestamp": "2025-12-07T05:38:10.147551+00:00", "meta": {"OBJECT_NAME": "BEIDOU-2 G7 (C03)", "OBJECT_ID": "2016-037A", "EPOCH": "2025-12-06T12:28:41.400768", "MEAN_MOTION": 1.00270086, "ECCENTRICITY": 0.00043751, "INCLINATION": 1.7412, "RA_OF_ASC_NODE": 67.7316, "ARG_OF_PERICENTER": 1.5262, "MEAN_ANOMALY": 303.9569, "EPHEMERIS_TYPE": 0, "CLASSIFICATION_TYPE": "U", "NORAD_CAT_ID": 41586, "ELEMENT_SET_NO": 999, "REV_AT_EPOCH": 495, "BSTAR": 0, "MEAN_MOTION_DOT": -3.47e-06, "MEAN_MOTION_DDOT": 0}, "tle": {"line1": "1 41586U 16037A   25340.51992362 -.00000347  00000+0  00000+0 0  9995", "line2": "2 41586   1.7412  67.7316 0004375   1.5262 303.9569  1.00270086  4953"}}, "geometry": {"type": "Point", "coordinates": [-88.7501348701867, -0.7190514293078609]}}, {"type": "Feature", "properties": {"norad_id": 41589, "name": "EUTELSAT 117 WEST B (WAAS/PRN 131)", "group": "gnss", "lat": -0.00951690115603535, "lon": 43.796469291945655, "alt_km": 35785.26526777809, "timestamp": "2025-12-07T05:38:10.147562+00:00", "meta": {"OBJECT_NAME": "EUTELSAT 117 WEST B (WAAS/PRN 131)", "OBJECT_ID": "2016-038B", "EPOCH": "2025-12-06T11:23:47.617152", "MEAN_MOTION": 1.00272504, "ECCENTRICITY": 1.795e-05, "INCLINATION": 0.0132, "RA_OF_ASC_NODE": 172.9606, "ARG_OF_PERICENTER": 270.2421, "MEAN_ANOMALY": 46.2587, "EPHEMERIS_TYPE": 0, "CLASSIFICATION_TYPE": "U", "NORAD_CAT_ID": 41589, "ELEMENT_SET_NO": 999, "REV_AT_EPOCH": 3473, "BSTAR": 0, "MEAN_MOTION_DOT": -5e-08, "MEAN_MOTION_DDOT": 0}, "tle": {"line1": "1 41589U 16038B   25340.47485668 -.00000005  00000+0  00000+0 0  9991", "line2": "2 41589   0.0132 172.9606 0000179 270.2421  46.2587  1.00272504 34731"}}, "geometry": {"type": "Point", "coordinates": [43.796469291945655, -0.00951690115603535]}}, {"type": "Feature", "properties": {"norad_id": 41859, "name": "GSAT0207 (GALILEO 15)", "group": "gnss", "lat": -4.523026022315112, "lon": -70.4811021137105, "alt_km": 23227.856984279766, "timestamp": "2025-12-07T05:38:10.147576+00:00", "meta": {"OBJECT_NAME": "GSAT0207 (GALILEO 15)", "OBJECT_ID": "2016-069A", "EPOCH": "2025-12-05T18:13:35.857920", "MEAN_MOTION": 1.70474238, "ECCENTRICITY": 0.00021634, "INCLINATION": 55.3781, "RA_OF_ASC_NODE": 106.4436, "ARG_OF_PERICENTER": 324.5217, "MEAN_ANOMALY": 35.4153, "EPHEMERIS_TYPE": 0, "CLASSIFICATION_TYPE": "U", "NORAD_CAT_ID": 41859, "ELEMENT_SET_NO": 999, "REV_AT_EPOCH": 5610, "BSTAR": 0, "MEAN_MOTION_DOT": 7e-08, "MEAN_MOTION_DDOT": 0}, "tle": {"line1": "1 41859U 16069A   25339.75944280  .00000007  00000+0  00000+0 0  9995", "line2": "2 41859  55.3781 106.4436 0002163 324.5217  35.4153  1.70474238 56107"}}, "geometry": {"type": "Point", "coordinates": [-70.4811021137105, -4.523026022315112]}}, {"type": "Feature", "properties": {"norad_id": 41860, "name": "GSAT0212 (GALILEO 16)", "group": "gnss", "lat": -55.031318659365155, "lon": 25.661170587054254, "alt_km": 23231.012219671353, "timestamp": "2025-12-07T05:38:10.147589+00:00", "meta": {"OBJECT_NAME": "GSAT0212 (GALILEO 16)", "OBJECT_ID": "2016-069B", "EPOCH": "2025-12-06T04:47:33.838080", "MEAN_MOTION": 1.70474471, "ECCENTRICITY": 0.00022225, "INCLINATION": 55.376, "RA_OF_ASC_NODE": 106.4267, "ARG_OF_PERICENTER": 32.4045, "MEAN_ANOMALY": 327.5613, "EPHEMERIS_TYPE": 0, "CLASSIFICATION_TYPE": "U", "NORAD_CAT_ID": 41860, "ELEMENT_SET_NO": 999, "REV_AT_EPOCH": 5636, "BSTAR": 0, "MEAN_MOTION_DOT": 6e-08, "MEAN_MOTION_DDOT": 0}, "tle": {"line1": "1 41860U 16069B   25340.19969720  .00000006  00000+0  00000+0 0  9992", "line2": "2 41860  55.3760 106.4267 0002222  32.4045 327.5613  1.70474471 56361"}}, "geometry": {"type": "Point", "coordinates": [25.661170587054254, -55.031318659365155]}}, {"type": "Feature", "properties": {"norad_id": 41861, "name": "GSAT0213 (GALILEO 17)", "group": "gnss", "lat": 38.88354673421381, "lon": 140.21184395877887, "alt_km": 23221.090213423508, "timestamp": "2025-12-07T05:38:10.147600+00:00", "meta": {"OBJECT_NAME": "GSAT0213 (GALILEO 17)", "OBJECT_ID": "2016-069C", "EPOCH": "2025-12-04T19:22:49.962144", "MEAN_MOTION": 1.70474712, "ECCENTRICITY": 0.00021375, "INCLINATION": 55.3775, "RA_OF_ASC_NODE": 106.4729, "ARG_OF_PERICENTER": 283.7545, "MEAN_ANOMALY": 76.173, "EPHEMERIS_TYPE": 0, "CLASSIFICATION_TYPE": "U", "NORAD_CAT_ID": 41861, "ELEMENT_SET_NO": 999, "REV_AT_EPOCH": 5620, "BSTAR": 0, "MEAN_MOTION_DOT": 1e-07, "MEAN_MOTION_DDOT": 0}, "tle": {"line1": "1 41861U 16069C   25338.80752271  .00000010  00000+0  00000+0 0  9994", "line2": "2 41861  55.3775 106.4729 0002137 283.7545  76.1730  1.70474712 56200"}}, "geometry": {"type": "Point", "coordinates": [140.21184395877887, 38.88354673421381]}}, {"type": "Feature", "properties": {"norad_id": 41862, "name": "GSAT0214 (GALILEO 18)", "group": "gnss", "lat": -31.86429449409609, "lon": 80.97862873407422, "alt_km": 23223.08347264063, "timestamp": "2025-12-07T05:38:10.147612+00:00", "meta": {"OBJECT_NAME": "GSAT0214 (GALILEO 18)", "OBJECT_ID": "2016-069D", "EPOCH": "2025-12-05T12:57:44.455104", "MEAN_MOTION": 1.70474584, "ECCENTRICITY": 0.00011763, "INCLINATION": 55.3762, "RA_OF_ASC_NODE": 106.4455, "ARG_OF_PERICENTER": 291.0864, "MEAN_ANOMALY": 68.8522, "EPHEMERIS_TYPE": 0, "CLASSIFICATION_TYPE": "U", "NORAD_CAT_ID": 41862, "ELEMENT_SET_NO": 999, "REV_AT_EPOCH": 5634, "BSTAR": 0, "MEAN_MOTION_DOT": 8e-08, "MEAN_MOTION_DDOT": 0}, "tle": {"line1": "1 41862U 16069D   25339.54009786  .00000008  00000+0  00000+0 0  9990", "line2": "2 41862  55.3762 106.4455 0001176 291.0864  68.8522  1.70474584 56340"}}, "geometry": {"type": "Point", "coordinates": [80.97862873407422, -31.86429449409609]}}, {"type": "Feature", "properties": {"norad_id": 42709, "name": "SES-15 (WAAS/PRN 133)", "group": "gnss", "lat": 0.03274728262486175, "lon": 31.616895538832313, "alt_km": 35787.991553391825, "timestamp": "2025-12-07T05:38:10.147624+00:00", "meta": {"OBJECT_NAME": "SES-15 (WAAS/PRN 133)", "OBJECT_ID": "2017-026A", "EPOCH": "2025-12-06T10:37:52.502592", "MEAN_MOTION": 1.00267579, "ECCENTRICITY": 5.173e-05, "INCLINATION": 0.0196, "RA_OF_ASC_NODE": 346.8785, "ARG_OF_PERICENTER": 293.5379, "MEAN_ANOMALY": 185.3614, "EPHEMERIS_TYPE": 0, "CLASSIFICATION_TYPE": "U", "NORAD_CAT_ID": 42709, "ELEMENT_SET_NO": 999, "REV_AT_EPOCH": 550, "BSTAR": 0, "MEAN_MOTION_DOT": 6.7e-07, "MEAN_MOTION_DDOT": 0}, "tle": {"line1": "1 42709U 17026A   25340.44296878  .00000067  00000+0  00000+0 0  9991", "line2": "2 42709   0.0196 346.8785 0000517 293.5379 185.3614  1.00267579  5507"}}, "geometry": {"type": "Point", "coordinates": [31.616895538832313, 0.03274728262486175]}}, {"type": "Feature", "properties": {"norad_id": 42738, "name": "QZS-2 (QZSS/PRN 194)", "group": "gnss", "lat": 33.90716105344804, "lon": -60.116398175287, "alt_km": 38514.34846142046, "timestamp": "2025-12-07T05:38:10.147636+00:00", "meta": {"OBJECT_NAME": "QZS-2 (QZSS/PRN 194)", "OBJECT_ID": "2017-028A", "EPOCH": "2025-12-05T14:20:02.331744", "MEAN_MOTION": 1.00284944, "ECCENTRICITY": 0.07587515, "INCLINATION": 39.7259, "RA_OF_ASC_NODE": 245.988, "ARG_OF_PERICENTER": 269.4031, "MEAN_ANOMALY": 275.8025, "EPHEMERIS_TYPE": 0, "CLASSIFICATION_TYPE": "U", "NORAD_CAT_ID": 42738, "ELEMENT_SET_NO": 999, "REV_AT_EPOCH": 568, "BSTAR": 0, "MEAN_MOTION_DOT": -1.57e-06, "MEAN_MOTION_DDOT": 0}, "tle": {"line1": "1 42738U 17028A   25339.59724921 -.00000157  00000+0  00000+0 0  9995", "line2": "2 42738  39.7259 245.9880 0758751 269.4031 275.8025  1.00284944  5685"}}, "geometry": {"type": "Point", "coordinates": [-60.116398175287, 33.90716105344804]}}]}